{
  "type": "FeatureCollection",
  "features": [
    {
      "type": "Feature",
      "properties": {
        "norad_id": 66537,
        "name": "STARLINK-35582",
        "group": "last-30-days",
        "lat": 3.0747816254687717,
        "lon": -80.07786974488911,
        "alt_km": 345.9010117258649,
        "timestamp": "2025-12-04T09:47:36.302796+00:00",
        "meta_object_name": "STARLINK-35582",
        "meta_object_id": "2025-265X",
        "meta_epoch": "2025-12-03T22:00:03.000096",
        "meta_mean_motion": 15.75314122,
        "meta_eccentricity": 0.00016801,
        "meta_inclination": 43.0001,
        "meta_ra_of_asc_node": 106.208,
        "meta_arg_of_pericenter": 283.9953,
        "meta_mean_anomaly": 342.1692,
        "meta_ephemeris_type": 0,
        "meta_classification_type": "U",
        "meta_norad_cat_id": 66537,
        "meta_element_set_no": 999,
        "meta_rev_at_epoch": 357,
        "meta_bstar": -0.0052968896,
        "meta_mean_motion_dot": -0.00754251,
        "meta_mean_motion_ddot": 0,
        "tle_line1": "1 66537U 25265X   25337.91670139 -.00754251  00000+0 -52969-2 0  9991",
        "tle_line2": "2 66537  43.0001 106.2080 0001680 283.9953 342.1692 15.75314122  3571"
      },
      "geometry": {
        "type": "Point",
        "coordinates": [
          -80.07786974488911,
          3.0747816254687717
        ]
      }
    },
    {
      "type": "Feature",
      "properties": {
        "norad_id": 66538,
        "name": "STARLINK-35577",
        "group": "last-30-days",
        "lat": 1.7775680391187665,
        "lon": -78.68781497101857,
        "alt_km": 346.8205727266113,
        "timestamp": "2025-12-04T09:47:36.302806+00:00",
        "meta_object_name": "STARLINK-35577",
        "meta_object_id": "2025-265Y",
        "meta_epoch": "2025-12-04T04:00:03.000096",
        "meta_mean_motion": 15.75092489,
        "meta_eccentricity": 0.0001367,
        "meta_inclination": 43.0003,
        "meta_ra_of_asc_node": 104.6844,
        "meta_arg_of_pericenter": 265.907,
        "meta_mean_anomaly": 341.5933,
        "meta_ephemeris_type": 0,
        "meta_classification_type": "U",
        "meta_norad_cat_id": 66538,
        "meta_element_set_no": 999,
        "meta_rev_at_epoch": 361,
        "meta_bstar": -0.013518,
        "meta_mean_motion_dot": -0.01821629,
        "meta_mean_motion_ddot": 0,
        "tle_line1": "1 66538U 25265Y   25338.16670139 -.01821629  00000+0 -13518-1 0  9991",
        "tle_line2": "2 66538  43.0003 104.6844 0001367 265.9070 341.5933 15.75092489  3611"
      },
      "geometry": {
        "type": "Point",
        "coordinates": [
          -78.68781497101857,
          1.7775680391187665
        ]
      }
    },
    {
      "type": "Feature",
      "properties": {
        "norad_id": 66539,
        "name": "STARLINK-35697",
        "group": "last-30-days",
        "lat": 0.4766933345044595,
        "lon": -77.29600739709615,
        "alt_km": 346.6095786346732,
        "timestamp": "2025-12-04T09:47:36.302816+00:00",
        "meta_object_name": "STARLINK-35697",
        "meta_object_id": "2025-265Z",
        "meta_epoch": "2025-12-04T04:00:03.000096",
        "meta_mean_motion": 15.75131192,
        "meta_eccentricity": 0.0001262,
        "meta_inclination": 43.0003,
        "meta_ra_of_asc_node": 104.6793,
        "meta_arg_of_pericenter": 249.8858,
        "meta_mean_anomaly": 359.496,
        "meta_ephemeris_type": 0,
        "meta_classification_type": "U",
        "meta_norad_cat_id": 66539,
        "meta_element_set_no": 999,
        "meta_rev_at_epoch": 361,
        "meta_bstar": -0.013782,
        "meta_mean_motion_dot": -0.01855318,
        "meta_mean_motion_ddot": 0,
        "tle_line1": "1 66539U 25265Z   25338.16670139 -.01855318  00000+0 -13782-1 0  9997",
        "tle_line2": "2 66539  43.0003 104.6793 0001262 249.8858 359.4960 15.75131192  3617"
      },
      "geometry": {
        "type": "Point",
        "coordinates": [
          -77.29600739709615,
          0.4766933345044595
        ]
      }
    },
    {
      "type": "Feature",
      "properties": {
        "norad_id": 66540,
        "name": "STARLINK-35818",
        "group": "last-30-days",
        "lat": -0.8312780745170296,
        "lon": -75.89652518526152,
        "alt_km": 347.3132297268139,
        "timestamp": "2025-12-04T09:47:36.302826+00:00",
        "meta_object_name": "STARLINK-35818",
        "meta_object_id": "2025-265AA",
        "meta_epoch": "2025-12-04T04:00:03.000096",
        "meta_mean_motion": 15.75118025,
        "meta_eccentricity": 0.0001635,
        "meta_inclination": 43,
        "meta_ra_of_asc_node": 104.675,
        "meta_arg_of_pericenter": 276.6271,
        "meta_mean_anomaly": 334.6884,
        "meta_ephemeris_type": 0,
        "meta_classification_type": "U",
        "meta_norad_cat_id": 66540,
        "meta_element_set_no": 999,
        "meta_rev_at_epoch": 361,
        "meta_bstar": -0.013748,
        "meta_mean_motion_dot": -0.01850706,
        "meta_mean_motion_ddot": 0,
        "tle_line1": "1 66540U 25265AA  25338.16670139 -.01850706  00000+0 -13748-1 0  9997",
        "tle_line2": "2 66540  43.0000 104.6750 0001635 276.6271 334.6884 15.75118025  3610"
      },
      "geometry": {
        "type": "Point",
        "coordinates": [
          -75.89652518526152,
          -0.8312780745170296
        ]
      }
    },
    {
      "type": "Feature",
      "properties": {
        "norad_id": 66541,
        "name": "STARLINK-35796",
        "group": "last-30-days",
        "lat": -2.136685320561175,
        "lon": -74.49895781009164,
        "alt_km": 347.32841602894314,
        "timestamp": "2025-12-04T09:47:36.302836+00:00",
        "meta_object_name": "STARLINK-35796",
        "meta_object_id": "2025-265AB",
        "meta_epoch": "2025-12-04T04:00:03.000096",
        "meta_mean_motion": 15.75120889,
        "meta_eccentricity": 0.0001629,
        "meta_inclination": 43.0001,
        "meta_ra_of_asc_node": 104.6701,
        "meta_arg_of_pericenter": 272.3102,
        "meta_mean_anomaly": 340.9186,
        "meta_ephemeris_type": 0,
        "meta_classification_type": "U",
        "meta_norad_cat_id": 66541,
        "meta_element_set_no": 999,
        "meta_rev_at_epoch": 361,
        "meta_bstar": -0.013751,
        "meta_mean_motion_dot": -0.01851274,
        "meta_mean_motion_ddot": 0,
        "tle_line1": "1 66541U 25265AB  25338.16670139 -.01851274  00000+0 -13751-1 0  9993",
        "tle_line2": "2 66541  43.0001 104.6701 0001629 272.3102 340.9186 15.75120889  3613"
      },
      "geometry": {
        "type": "Point",
        "coordinates": [
          -74.49895781009164,
          -2.136685320561175
        ]
      }
    },
    {
      "type": "Feature",
      "properties": {
        "norad_id": 66542,
        "name": "STARLINK-35833",
        "group": "last-30-days",
        "lat": -3.4446612903201945,
        "lon": -73.09447519658038,
        "alt_km": 347.0636088542533,
        "timestamp": "2025-12-04T09:47:36.302846+00:00",
        "meta_object_name": "STARLINK-35833",
        "meta_object_id": "2025-265AC",
        "meta_epoch": "2025-12-04T04:00:03.000096",
        "meta_mean_motion": 15.75133775,
        "meta_eccentricity": 9.99e-05,
        "meta_inclination": 43.0002,
        "meta_ra_of_asc_node": 104.6656,
        "meta_arg_of_pericenter": 250.1309,
        "meta_mean_anomaly": 5.0017,
        "meta_ephemeris_type": 0,
        "meta_classification_type": "U",
        "meta_norad_cat_id": 66542,
        "meta_element_set_no": 999,
        "meta_rev_at_epoch": 361,
        "meta_bstar": -0.013827,
        "meta_mean_motion_dot": -0.01860513,
        "meta_mean_motion_ddot": 0,
        "tle_line1": "1 66542U 25265AC  25338.16670139 -.01860513  00000+0 -13827-1 0  9994",
        "tle_line2": "2 66542  43.0002 104.6656 0000999 250.1309   5.0017 15.75133775  3616"
      },
      "geometry": {
        "type": "Point",
        "coordinates": [
          -73.09447519658038,
          -3.4446612903201945
        ]
      }
    },
    {
      "type": "Feature",
      "properties": {
        "norad_id": 66543,
        "name": "STARLINK-35315",
        "group": "last-30-days",
        "lat": -4.740391037945849,
        "lon": -71.69805326104989,
        "alt_km": 347.520320236702,
        "timestamp": "2025-12-04T09:47:36.302860+00:00",
        "meta_object_name": "STARLINK-35315",
        "meta_object_id": "2025-265AD",
        "meta_epoch": "2025-12-04T04:00:03.000096",
        "meta_mean_motion": 15.75146845,
        "meta_eccentricity": 0.0001432,
        "meta_inclination": 43.0003,
        "meta_ra_of_asc_node": 104.6602,
        "meta_arg_of_pericenter": 271.6681,
        "meta_mean_anomaly": 345.3685,
        "meta_ephemeris_type": 0,
        "meta_classification_type": "U",
        "meta_norad_cat_id": 66543,
        "meta_element_set_no": 999,
        "meta_rev_at_epoch": 350,
        "meta_bstar": -0.013897,
        "meta_mean_motion_dot": -0.01869997,
        "meta_mean_motion_ddot": 0,
        "tle_line1": "1 66543U 25265AD  25338.16670139 -.01869997  00000+0 -13897-1 0  9997",
        "tle_line2": "2 66543  43.0003 104.6602 0001432 271.6681 345.3685 15.75146845  3504"
      },
      "geometry": {
        "type": "Point",
        "coordinates": [
          -71.69805326104989,
          -4.740391037945849
        ]
      }
    }
  ]
}